NORAD_CAT_ID,OBJECT_NAME,OBJECT_TYPE,EPOCH,MEAN_MOTION,ECCENTRICITY,INCLINATION,RA_OF_ASC_NODE,ARG_OF_PERICENTER,MEAN_ANOMALY,BSTAR,MEAN_MOTION_DOT,MEAN_MOTION_DDOT,TLE_LINE0,TLE_LINE1,TLE_LINE2,SEMIMAJOR_AXIS,PERIOD,APOGEE,PERIGEE,DECAYED
51988.0,STARLINK-3640,PAYLOAD,2023-12-07 09:33:44,15.08845365,0.0001183,53.2155,135.0173,94.3848,265.7279,6.217e-05,7.02e-06,0.0,0 STARLINK-3640,1 51988U 22025AJ  23341.39843458  .00000702  00000-0  62170-4 0  9998,2 51988  53.2155 135.0173 0001183  94.3848 265.7279 15.08845365 97888,6917.864,95.437,540.547,538.911,0.0
51988.0,STARLINK-3640,PAYLOAD,2023-12-07 19:06:03,15.08840788,0.0001145,53.2163,133.2319,97.0094,263.1028,4.438e-05,4.19e-06,0.0,0 STARLINK-3640,1 51988U 22025AJ  23341.79587724  .00000419  00000-0  44380-4 0  9991,2 51988  53.2163 133.2319 0001145  97.0094 263.1028 15.08840788 97945,6917.878,95.438,540.535,538.951,0.0
51988.0,STARLINK-3640,PAYLOAD,2023-12-08 10:59:55,15.08837296,0.0001176,53.2168,130.2587,99.4776,260.635,7.5108e-06,-1.68e-06,0.0,0 STARLINK-3640,1 51988U 22025AJ  23342.45828048 -.00000168  00000-0  75108-5 0  9997,2 51988  53.2168 130.2587 0001176  99.4776 260.6350 15.08837296 96939,6917.889,95.438,540.567,538.94,0.0
51988.0,STARLINK-3640,PAYLOAD,2023-12-08 18:56:50,15.08839928,0.0001488,53.2156,128.7693,87.0757,273.0405,1.6346e-05,-2.8e-07,0.0,0 STARLINK-3640,1 51988U 22025AJ  23342.78947912 -.00000028  00000-0  16346-4 0  9998,2 51988  53.2156 128.7693 0001488  87.0757 273.0405 15.08839928 96982,6917.881,95.438,540.775,538.716,0.0
51988.0,STARLINK-3640,PAYLOAD,2023-12-09 09:15:19,15.08836409,0.000153,53.2148,126.0958,85.844,274.2727,8.961e-05,1.138e-05,0.0,0 STARLINK-3640,1 51988U 22025AJ  23343.38563901  .00001138  00000-0  89610-4 0  9993,2 51988  53.2148 126.0958 0001530  85.8440 274.2727 15.08836409 98186,6917.891,95.438,540.815,538.698,0.0
51988.0,STARLINK-3640,PAYLOAD,2023-12-09 12:26:05,15.0883638,0.0001429,53.2157,125.5016,84.8519,275.2636,7.8198e-05,9.57e-06,0.0,0 STARLINK-3640,1 51988U 22025AJ  23343.51811955  .00000957  00000-0  78198-4 0  9990,2 51988  53.2157 125.5016 0001429  84.8519 275.2636 15.08836380 97095,6917.891,95.438,540.745,538.768,0.0
51988.0,STARLINK-3640,PAYLOAD,2023-12-10 13:52:15,15.08838016,0.0001331,53.2163,120.7434,88.3114,271.803,5.3091e-05,5.57e-06,0.0,0 STARLINK-3640,1 51988U 22025AJ  23344.57796118  .00000557  00000-0  53091-4 0  9991,2 51988  53.2163 120.7434 0001331  88.3114 271.8030 15.08838016 97251,6917.886,95.438,540.672,538.831,0.0
51988.0,STARLINK-3640,PAYLOAD,2023-12-10 17:03:02,15.08839495,0.0001304,53.2166,120.149,84.2772,275.8369,6.3287e-05,7.19e-06,0.0,0 STARLINK-3640,1 51988U 22025AJ  23344.71044025  .00000719  00000-0  63287-4 0  9998,2 51988  53.2166 120.1490 0001304  84.2772 275.8369 15.08839495 98381,6917.882,95.438,540.649,538.845,0.0
51988.0,STARLINK-3640,PAYLOAD,2023-12-11 13:43:02,15.08842375,0.0001317,53.2168,116.2835,80.7287,279.3854,8.1559e-05,1.01e-05,0.0,0 STARLINK-3640,1 51988U 22025AJ  23345.57155790  .00001010  00000-0  81559-4 0  9992,2 51988  53.2168 116.2835 0001317  80.7287 279.3854 15.08842375 97409,6917.873,95.437,540.649,538.827,0.0
51988.0,STARLINK-3640,PAYLOAD,2023-12-11 15:18:25,15.08843309,0.0001351,53.2169,115.9863,78.1416,281.9727,8.912e-05,1.131e-05,0.0,0 STARLINK-3640,1 51988U 22025AJ  23345.63779727  .00001131  00000-0  89120-4 0  9997,2 51988  53.2169 115.9863 0001351  78.1416 281.9727 15.08843309 97417,6917.87,95.437,540.67,538.801,0.0
51988.0,STARLINK-3640,PAYLOAD,2023-12-12 11:58:26,15.08840102,0.0001334,53.2171,112.1195,79.9408,280.1734,3.5066e-05,2.7e-06,0.0,0 STARLINK-3640,1 51988U 22025AJ  23346.49892072  .00000270  00000-0  35066-4 0  9994,2 51988  53.2171 112.1195 0001334  79.9408 280.1734 15.08840102 98652,6917.88,95.438,540.668,538.822,0.0
51988.0,STARLINK-3640,PAYLOAD,2023-12-12 13:33:49,15.08840017,0.0001308,53.217,111.822,81.6749,278.4391,3.2276e-05,2.26e-06,0.0,0 STARLINK-3640,1 51988U 22025AJ  23346.56516056  .00000226  00000-0  32276-4 0  9998,2 51988  53.2170 111.8220 0001308  81.6749 278.4391 15.08840017 97557,6917.88,95.438,540.65,538.84,0.0
51988.0,STARLINK-3640,PAYLOAD,2023-12-12 15:09:12,15.08840169,0.0001302,53.217,111.5246,82.0343,278.0796,3.1898e-05,2.2e-06,0.0,0 STARLINK-3640,1 51988U 22025AJ  23346.63140037  .00000220  00000-0  31898-4 0  9991,2 51988  53.2170 111.5246 0001302  82.0343 278.0796 15.08840169 97565,6917.88,95.438,540.646,538.844,0.0
51988.0,STARLINK-3640,PAYLOAD,2023-12-13 11:49:15,15.08826582,0.0001395,53.2173,107.6592,99.2458,260.8692,-0.00014124,-2.534e-05,0.0,0 STARLINK-3640,1 51988U 22025AJ  23347.49253972 -.00002534  00000-0 -14124-3 0  9993,2 51988  53.2173 107.6592 0001395  99.2458 260.8692 15.08826582 98802,6917.921,95.438,540.751,538.821,0.0
51988.0,STARLINK-3640,PAYLOAD,2023-12-13 13:24:38,15.08827131,0.00014,53.2176,107.3588,93.4181,266.6972,-0.00013726,-2.471e-05,0.0,0 STARLINK-3640,1 51988U 22025AJ  23347.55877984 -.00002471  00000-0 -13726-3 0  9992,2 51988  53.2176 107.3588 0001400  93.4181 266.6972 15.08827131 97707,6917.92,95.438,540.753,538.816,0.0
51988.0,STARLINK-3640,PAYLOAD,2023-12-14 11:40:02,15.08835278,0.0001381,53.2173,103.1947,88.3892,271.7259,7.2017e-05,8.58e-06,0.0,0 STARLINK-3640,1 51988U 22025AJ  23348.48613545  .00000858  00000-0  72017-4 0  9990,2 51988  53.2173 103.1947 0001381  88.3892 271.7259 15.08835278 98951,6917.895,95.438,540.715,538.804,0.0
51988.0,STARLINK-3640,PAYLOAD,2023-12-14 13:15:25,15.08835213,0.0001493,53.2171,102.8993,67.127,292.9879,7.0047e-05,8.27e-06,0.0,0 STARLINK-3640,1 51988U 22025AJ  23348.55237579  .00000827  00000-0  70047-4 0  9994,2 51988  53.2171 102.8993 0001493  67.1270 292.9879 15.08835213 97855,6917.895,95.438,540.793,538.727,0.0
51988.0,STARLINK-3640,PAYLOAD,2023-12-15 13:06:11,15.08840962,0.0001426,53.2172,98.4403,74.9039,285.2111,0.00035664,5.393e-05,0.0,0 STARLINK-3640,1 51988U 22025AJ  23349.54596887  .00005393  00000-0  35664-3 0  9992,2 51988  53.2172  98.4403 0001426  74.9039 285.2111 15.08840962 98006,6917.877,95.437,540.729,538.756,0.0
51988.0,STARLINK-3640,PAYLOAD,2023-12-16 14:32:21,15.08853466,0.0001456,53.2175,93.6825,80.9565,279.1592,4.1524e-05,3.73e-06,0.0,0 STARLINK-3640,1 51988U 22025AJ  23350.60580705  .00000373  00000-0  41524-4 0  9999,2 51988  53.2175  93.6825 0001456  80.9565 279.1592 15.08853466 98163,6917.839,95.437,540.711,538.697,0.0
51988.0,STARLINK-3640,PAYLOAD,2023-12-17 11:12:22,15.08845263,0.0001404,53.2172,89.8183,70.6267,289.4877,-4.6611e-05,-1.03e-05,0.0,0 STARLINK-3640,1 51988U 22025AJ  23351.46693133 -.00001030  00000-0 -46611-4 0  9999,2 51988  53.2172  89.8183 0001404  70.6267 289.4877 15.08845263 99406,6917.864,95.437,540.701,538.758,0.0
51988.0,STARLINK-3640,PAYLOAD,2023-12-17 14:23:08,15.088507,0.000145,53.2179,89.2205,76.9467,283.1687,-1.9494e-05,-5.98e-06,0.0,0 STARLINK-3640,1 51988U 22025AJ  23351.59940550 -.00000598  00000-0 -19494-4 0  9998,2 51988  53.2179  89.2205 0001450  76.9467 283.1687 15.08850700 98315,6917.848,95.437,540.716,538.71,0.0
51988.0,STARLINK-3640,PAYLOAD,2023-12-17 20:44:40,15.08856236,0.000147,53.218,88.0313,74.7665,285.349,4.5482e-05,4.36e-06,0.0,0 STARLINK-3640,1 51988U 22025AJ  23351.86435934  .00000436  00000-0  45482-4 0  9998,2 51988  53.2180  88.0313 0001470  74.7665 285.3490 15.08856236 98352,6917.831,95.437,540.713,538.679,0.0
51988.0,STARLINK-3640,PAYLOAD,2023-12-18 12:38:31,15.08855402,0.0001851,53.2163,85.0618,53.6392,306.4771,0.00023256,3.417e-05,0.0,0 STARLINK-3640,1 51988U 22025AJ  23352.52675867  .00003417  00000-0  23256-3 0  9999,2 51988  53.2163  85.0618 0001851  53.6392 306.4771 15.08855402 98456,6917.833,95.437,540.979,538.418,0.0
51988.0,STARLINK-3640,PAYLOAD,2023-12-19 10:53:56,15.08843885,0.0001195,53.2172,80.8942,77.0026,283.1099,4.1209e-05,3.68e-06,0.0,0 STARLINK-3640,1 51988U 22025AJ  23353.45412185  .00000368  00000-0  41209-4 0  9995,2 51988  53.2172  80.8942 0001195  77.0026 283.1099 15.08843885 99709,6917.869,95.437,540.56,538.907,0.0
51988.0,STARLINK-3640,PAYLOAD,2023-12-19 12:29:19,15.0884443,0.000132,53.2166,80.5976,96.3144,263.7998,4.8492e-05,4.84e-06,0.0,0 STARLINK-3640,1 51988U 22025AJ  23353.52036083  .00000484  00000-0  48492-4 0  9992,2 51988  53.2166  80.5976 0001320  96.3144 263.7998 15.08844430 98608,6917.867,95.437,540.645,538.819,0.0
51988.0,STARLINK-3640,PAYLOAD,2023-12-20 10:44:43,15.08835441,0.0001663,53.2174,76.4325,100.0595,260.0585,-0.00017516,-3.074e-05,0.0,0 STARLINK-3640,1 51988U 22025AJ  23354.44772736 -.00003074  00000-0 -17516-3 0  9998,2 51988  53.2174  76.4325 0001663 100.0595 260.0585 15.08835441 99854,6917.894,95.438,540.91,538.609,0.0
51988.0,STARLINK-3640,PAYLOAD,2023-12-20 12:20:06,15.08836714,0.0001737,53.2178,76.1374,66.3437,293.7737,-0.000136,-2.452e-05,0.0,0 STARLINK-3640,1 51988U 22025AJ  23354.51396939 -.00002452  00000-0 -13600-3 0  9992,2 51988  53.2178  76.1374 0001737  66.3437 293.7737 15.08836714 98754,6917.89,95.438,540.957,538.554,0.0
51988.0,STARLINK-3640,PAYLOAD,2023-12-21 12:10:53,15.088561,0.0001571,53.2174,71.6807,95.5684,264.5487,0.00055863,8.618e-05,0.0,0 STARLINK-3640,1 51988U 22025AJ  23355.50756674  .00008618  00000-0  55863-3 0  9993,2 51988  53.2174  71.6807 0001571  95.5684 264.5487 15.08856100100017,6917.831,95.437,540.783,538.609,0.0
51988.0,STARLINK-3640,PAYLOAD,2023-12-22 10:26:17,15.08847593,0.0001699,53.2184,67.5184,104.4839,255.6342,0.00021991,3.214e-05,0.0,0 STARLINK-3640,1 51988U 22025AJ  23356.43492975  .00003214  00000-0  21991-3 0  9999,2 51988  53.2184  67.5184 0001699 104.4839 255.6342 15.08847593100155,6917.857,95.437,540.898,538.547,0.0
51988.0,STARLINK-3640,PAYLOAD,2023-12-23 03:55:32,15.08841593,0.0001622,53.2173,64.2484,108.1715,251.9454,0.00016124,2.279e-05,0.0,0 STARLINK-3640,1 51988U 22025AJ  23357.16357111  .00002279  00000-0  16124-3 0  9994,2 51988  53.2173  64.2484 0001622 108.1715 251.9454 15.08841593100269,6917.876,95.437,540.863,538.618,0.0
